[{"OBJECT_NAME":"STARLINK-5595","OBJECT_ID":"2023-028AA","EPOCH":"2026-03-09T20:28:13.412064","MEAN_MOTION":14.98334738,"ECCENTRICITY":0.00031685,"INCLINATION":69.9996,"RA_OF_ASC_NODE":224.2008,"ARG_OF_PERICENTER":270.0112,"MEAN_ANOMALY":90.0684,"EPHEMERIS_TYPE":0,"CLASSIFICATION_TYPE":"U","NORAD_CAT_ID":55765,"ELEMENT_SET_NO":999,"REV_AT_EPOCH":16655,"BSTAR":3.1282084e-5,"MEAN_MOTION_DOT":2.8e-6,"MEAN_MOTION_DDOT":0},{"OBJECT_NAME":"COSMOS 2251 DEB","OBJECT_ID":"1993-036NN","EPOCH":"2026-03-09T07:26:11.225760","MEAN_MOTION":14.9633519,"ECCENTRICITY":0.00121484,"INCLINATION":74.0636,"RA_OF_ASC_NODE":162.8967,"ARG_OF_PERICENTER":260.3814,"MEAN_ANOMALY":99.5998,"EPHEMERIS_TYPE":0,"CLASSIFICATION_TYPE":"U","NORAD_CAT_ID":34316,"ELEMENT_SET_NO":999,"REV_AT_EPOCH":90502,"BSTAR":0.0021825431,"MEAN_MOTION_DOT":0.00024784,"MEAN_MOTION_DDOT":0}]
